NORAD_CAT_ID,OBJECT_NAME,OBJECT_TYPE,EPOCH,MEAN_MOTION,ECCENTRICITY,INCLINATION,RA_OF_ASC_NODE,ARG_OF_PERICENTER,MEAN_ANOMALY,BSTAR,MEAN_MOTION_DOT,MEAN_MOTION_DDOT,TLE_LINE0,TLE_LINE1,TLE_LINE2,SEMIMAJOR_AXIS,PERIOD,APOGEE,PERIGEE,DECAYED
50183.0,STARLINK-3281,PAYLOAD,2022-06-29 10:07:32,15.08837065,0.0003418,53.2186,186.2254,34.179,325.9422,-4.8969e-05,-1.068e-05,0.0,0 STARLINK-3281,1 50183U 21125AD  22180.42190051 -.00001068  00000-0 -48969-4 0  9990,2 50183  53.2186 186.2254 0003418  34.1790 325.9422 15.08837065 32951,6917.889,95.438,542.119,537.39,0.0
50183.0,STARLINK-3281,PAYLOAD,2022-06-30 05:12:10,15.08830595,0.0003526999999999,53.2182,182.6579,32.9961,327.125,5.2582e-05,5.48e-06,0.0,0 STARLINK-3281,1 50183U 21125AD  22181.21678348  .00000548  00000-0  52582-4 0  9994,2 50183  53.2182 182.6579 0003527  32.9961 327.1250 15.08830595 29943,6917.909000000002,95.438,542.214,537.3340000000002,0.0
50183.0,STARLINK-3281,PAYLOAD,2022-06-30 09:58:19,15.0883134,0.000357,53.2181,181.7661,32.7648,327.3565,4.5229e-05,4.31e-06,0.0,0 STARLINK-3281,1 50183U 21125AD  22181.41550447  .00000431  00000-0  45229-4 0  9996,2 50183  53.2181 181.7661 0003570  32.7648 327.3565 15.08831340 33105,6917.906999999997,95.438,542.242,537.302,0.0
50183.0,STARLINK-3281,PAYLOAD,2022-07-01 09:49:06,15.08834645,0.0003646,53.2183,177.3059,35.3028,324.8205,5.0421e-05,5.14e-06,0.0,0 STARLINK-3281,1 50183U 21125AD  22182.40910697  .00000514  00000-0  50421-4 0  9995,2 50183  53.2183 177.3059 0003646  35.3028 324.8205 15.08834645 33254,6917.897,95.438,542.284,537.239,0.0
50183.0,STARLINK-3281,PAYLOAD,2022-07-01 16:10:39,15.08835097,0.0003665,53.2183,176.1166,35.8338,324.29,4.9177e-05,4.94e-06,0.0,0 STARLINK-3281,1 50183U 21125AD  22182.67406743  .00000494  00000-0  49177-4 0  9999,2 50183  53.2183 176.1166 0003665  35.8338 324.2900 15.08835097 33292,6917.895,95.438,542.2959999999998,537.225,0.0
50183.0,STARLINK-3281,PAYLOAD,2022-07-02 06:29:07,15.08838394,0.0003708,53.2183,173.4404,37.4171,322.7079,5.2452e-05,5.46e-06,0.0,0 STARLINK-3281,1 50183U 21125AD  22183.27022686  .00000546  00000-0  52452-4 0  9994,2 50183  53.2183 173.4404 0003708  37.4171 322.7079 15.08838394 33381,6917.885,95.438,542.315,537.185,0.0
50183.0,STARLINK-3281,PAYLOAD,2022-07-02 16:01:26,15.08840325,0.0003741,53.2184,171.6563,38.2758,321.8499,6.5989e-05,7.62e-06,0.0,0 STARLINK-3281,1 50183U 21125AD  22183.66766552  .00000762  00000-0  65989-4 0  9993,2 50183  53.2184 171.6563 0003741  38.2758 321.8499 15.08840325 30318,6917.879,95.438,542.332,537.156,0.0
50183.0,STARLINK-3281,PAYLOAD,2022-07-03 06:19:54,15.08844341,0.0003783,53.2184,168.98,39.6808,320.446,7.4276e-05,8.94e-06,0.0,0 STARLINK-3281,1 50183U 21125AD  22184.26382229  .00000894  00000-0  74276-4 0  9990,2 50183  53.2184 168.9800 0003783  39.6808 320.4460 15.08844341 33530,6917.8669999999975,95.437,542.349,537.115,0.0
50183.0,STARLINK-3281,PAYLOAD,2022-07-03 22:13:45,15.08844294,0.0003827,53.2186,166.0067,41.5237,318.6045,5.9569e-05,6.59e-06,0.0,0 STARLINK-3281,1 50183U 21125AD  22184.92622090  .00000659  00000-0  59569-4 0  9993,2 50183  53.2186 166.0067 0003827  41.5237 318.6045 15.08844294 33639,6917.8669999999975,95.437,542.38,537.085,0.0
50183.0,STARLINK-3281,PAYLOAD,2022-07-04 04:35:18,15.08836697,0.0003825,53.2189,164.8176,42.4351,317.6936,-1.3055e-05,-4.97e-06,0.0,0 STARLINK-3281,1 50183U 21125AD  22185.19118851 -.00000497  00000-0 -13055-4 0  9990,2 50183  53.2189 164.8176 0003825  42.4351 317.6936 15.08836697 30547,6917.89,95.438,542.4019999999998,537.109,0.0
50183.0,STARLINK-3281,PAYLOAD,2022-07-04 07:46:05,15.08835175,0.0003842,53.2187,164.2225,42.1178,318.0109,-3.0061e-05,-7.67e-06,0.0,0 STARLINK-3281,1 50183U 21125AD  22185.32367017 -.00000767  00000-0 -30061-4 0  9991,2 50183  53.2187 164.2225 0003842  42.1178 318.0109 15.08835175 33693,6917.895,95.438,542.418,537.102,0.0
50183.0,STARLINK-3281,PAYLOAD,2022-07-04 15:43:00,15.08837862,0.0003852,53.2188,162.7358,42.6347,317.4943,-2.0973e-05,-6.23e-06,0.0,0 STARLINK-3281,1 50183U 21125AD  22185.65486875 -.00000623  00000-0 -20973-4 0  9993,2 50183  53.2188 162.7358 0003852  42.6347 317.4943 15.08837862 33748,6917.887,95.438,542.4169999999998,537.087,0.0
50183.0,STARLINK-3281,PAYLOAD,2022-07-05 07:36:51,15.08842381,0.0003861,53.2187,159.7615,43.9325,316.1973,-2.0185e-05,-6.1e-06,0.0,0 STARLINK-3281,1 50183U 21125AD  22186.31726594 -.00000610  00000-0 -20185-4 0  9993,2 50183  53.2187 159.7615 0003861  43.9325 316.1973 15.08842381 33841,6917.873000000001,95.437,542.409,537.067,0.0
50183.0,STARLINK-3281,PAYLOAD,2022-07-05 21:55:19,15.08840696,0.0003826,53.2187,157.0853,44.7809,315.3492,4.673e-05,4.55e-06,0.0,0 STARLINK-3281,1 50183U 21125AD  22186.91342380  .00000455  00000-0  46730-4 0  9995,2 50183  53.2187 157.0853 0003826  44.7809 315.3492 15.08840696 33937,6917.878000000002,95.438,542.39,537.096,0.0
50183.0,STARLINK-3281,PAYLOAD,2022-07-06 07:27:38,15.08840507,0.0003899,53.2187,155.3017,45.8974,314.2339,0.00011316,1.513e-05,0.0,0 STARLINK-3281,1 50183U 21125AD  22187.31086220  .00001513  00000-0  11316-3 0  9995,2 50183  53.2187 155.3017 0003899  45.8974 314.2339 15.08840507 33990,6917.879,95.438,542.441,537.047,0.0
50183.0,STARLINK-3281,PAYLOAD,2022-07-06 15:24:33,15.08843812,0.000392,53.2188,153.8151,46.4802,313.6516,0.00011921,1.609e-05,0.0,0 STARLINK-3281,1 50183U 21125AD  22187.64205984  .00001609  00000-0  11921-3 0  9999,2 50183  53.2188 153.8151 0003920  46.4802 313.6516 15.08843812 34044,6917.869000000002,95.437,542.446,537.0219999999998,0.0
50183.0,STARLINK-3281,PAYLOAD,2022-07-07 07:18:26,15.08833464,0.0003939,53.2191,150.8416,49.2756,310.8578,-6.5866e-06,-3.94e-06,0.0,0 STARLINK-3281,1 50183U 21125AD  22188.30447180 -.00000394  00000-0 -65866-5 0  9990,2 50183  53.2191 150.8416 0003939  49.2756 310.8578 15.08833464 34148,6917.9,95.438,542.49,537.04,0.0
50183.0,STARLINK-3281,PAYLOAD,2022-07-07 21:36:54,15.08840733,0.0003968,53.2195,148.1656,51.1854,308.9492,-2.2818e-06,-3.25e-06,0.0,0 STARLINK-3281,1 50183U 21125AD  22188.90062881 -.00000325  00000-0 -22818-5 0  9991,2 50183  53.2195 148.1656 0003968  51.1854 308.9492 15.08840733 34231,6917.878000000002,95.438,542.488,536.998,0.0
50183.0,STARLINK-3281,PAYLOAD,2022-07-08 03:58:26,15.08845613,0.0004001,53.2195,146.9768,51.0469,309.0879,4.5614e-05,4.37e-06,0.0,0 STARLINK-3281,1 50183U 21125AD  22189.16558334  .00000437  00000-0  45614-4 0  9993,2 50183  53.2195 146.9768 0004001  51.0469 309.0879 15.08845613 31141,6917.863,95.437,542.496,536.96,0.0
50183.0,STARLINK-3281,PAYLOAD,2022-07-08 07:09:12,15.08847203,0.0004007,53.2195,146.3819,51.305,308.83,5.8465e-05,6.42e-06,0.0,0 STARLINK-3281,1 50183U 21125AD  22189.29806159  .00000642  00000-0  58465-4 0  9994,2 50183  53.2195 146.3819 0004007  51.3050 308.8300 15.08847203 34299,6917.858,95.437,542.495,536.951,0.0
50183.0,STARLINK-3281,PAYLOAD,2022-07-09 05:24:37,15.08829998,0.0003969,53.2187,142.2185,50.4647,309.6696,2.7287e-05,1.45e-06,0.0,0 STARLINK-3281,1 50183U 21125AD  22190.22543529  .00000145  00000-0  27287-4 0  9994,2 50183  53.2187 142.2185 0003969  50.4647 309.6696 15.08829998 31306,6917.911,95.438,542.5219999999998,537.03,0.0
50183.0,STARLINK-3281,PAYLOAD,2022-07-09 13:21:33,15.08823367,0.0003918,53.2189,140.7313,50.7386,309.3953,0.00019083,2.748e-05,0.0,0 STARLINK-3281,1 50183U 21125AD  22190.55663696  .00002748  00000-0  19083-3 0  9993,2 50183  53.2189 140.7313 0003918  50.7386 309.3953 15.08823367 34480,6917.931,95.439,542.507,537.086,0.0
50183.0,STARLINK-3281,PAYLOAD,2022-07-10 05:15:24,15.0884466,0.0003958,53.2195,137.7591,52.6209,307.5143,4.1592e-05,3.73e-06,0.0,0 STARLINK-3281,1 50183U 21125AD  22191.21902868  .00000373  00000-0  41592-4 0  9997,2 50183  53.2195 137.7591 0003958  52.6209 307.5143 15.08844660 31454,6917.866,95.437,542.469,536.993,0.0
50183.0,STARLINK-3281,PAYLOAD,2022-07-10 13:12:19,15.08848705,0.0003977,53.2195,136.2723,53.3795,306.7563,6.7467e-05,7.85e-06,0.0,0 STARLINK-3281,1 50183U 21125AD  22191.55022459  .00000785  00000-0  67467-4 0  9999,2 50183  53.2195 136.2723 0003977  53.3795 306.7563 15.08848705 34638,6917.854,95.437,542.47,536.9680000000002,0.0
50183.0,STARLINK-3281,PAYLOAD,2022-07-11 05:06:11,15.08835828,0.0003997,53.2202,133.2999,56.1905,303.9467,8.677899999999999e-05,1.092e-05,0.0,0 STARLINK-3281,1 50183U 21125AD  22192.21263445  .00001092  00000-0  86779-4 0  9994,2 50183  53.2202 133.2999 0003997  56.1905 303.9467 15.08835828 31603,6917.893,95.438,542.523,536.993,0.0
50183.0,STARLINK-3281,PAYLOAD,2022-07-11 13:03:06,15.08842293,0.0004021,53.2202,131.8129,56.1512,303.9863,0.00012203,1.654e-05,0.0,0 STARLINK-3281,1 50183U 21125AD  22192.54382985  .00001654  00000-0  12203-3 0  9995,2 50183  53.2202 131.8129 0004021  56.1512 303.9863 15.08842293 34781,6917.873000000001,95.437,542.52,536.957,0.0
50183.0,STARLINK-3281,PAYLOAD,2022-07-11 19:24:38,15.08850612,0.000402,53.2203,130.6236,57.5418,302.5963,0.00011929,1.611e-05,0.0,0 STARLINK-3281,1 50183U 21125AD  22192.80878417  .00001611  00000-0  11929-3 0  9991,2 50183  53.2203 130.6236 0004020  57.5418 302.5963 15.08850612 31694,6917.848000000001,95.437,542.494,536.932,0.0
50183.0,STARLINK-3281,PAYLOAD,2022-07-12 12:53:53,15.08849488,0.0004003,53.22,127.3525,57.4042,302.7336,6.5845e-05,7.59e-06,0.0,0 STARLINK-3281,1 50183U 21125AD  22193.53742381  .00000759  00000-0  65845-4 0  9991,2 50183  53.2200 127.3525 0004003  57.4042 302.7336 15.08849488 34933,6917.851,95.437,542.486,536.947,0.0
50183.0,STARLINK-3281,PAYLOAD,2022-07-13 01:36:58,15.08841597,0.0003958,53.2201,124.9735,58.6876,301.4503,9.1759e-05,1.172e-05,0.0,0 STARLINK-3281,1 50183U 21125AD  22194.06734740  .00001172  00000-0  91759-4 0  9993,2 50183  53.2201 124.9735 0003958  58.6876 301.4503 15.08841597 31882,6917.876,95.437,542.479,537.002,0.0
